[{"OBJECT_NAME":"STARLINK-30907","OBJECT_ID":"2023-177B","EPOCH":"2026-03-09T22:00:01.999584","MEAN_MOTION":15.27570349,"ECCENTRICITY":0.00017529,"INCLINATION":43.0009,"RA_OF_ASC_NODE":349.075,"ARG_OF_PERICENTER":268.5333,"MEAN_ANOMALY":138.6096,"EPHEMERIS_TYPE":0,"CLASSIFICATION_TYPE":"U","NORAD_CAT_ID":58352,"ELEMENT_SET_NO":999,"REV_AT_EPOCH":573,"BSTAR":-0.00038850833,"MEAN_MOTION_DOT":-0.00010935,"MEAN_MOTION_DDOT":0},{"OBJECT_NAME":"OBJECT B","OBJECT_ID":"2024-203B","EPOCH":"2026-03-09T23:52:52.928256","MEAN_MOTION":15.27506959,"ECCENTRICITY":0.00103904,"INCLINATION":97.4268,"RA_OF_ASC_NODE":139.5887,"ARG_OF_PERICENTER":321.1475,"MEAN_ANOMALY":38.9016,"EPHEMERIS_TYPE":0,"CLASSIFICATION_TYPE":"U","NORAD_CAT_ID":61870,"ELEMENT_SET_NO":999,"REV_AT_EPOCH":7381,"BSTAR":0.00063263842,"MEAN_MOTION_DOT":0.00016997,"MEAN_MOTION_DDOT":0}]
